[{"OBJECT_NAME":"SHIYAN-6 01 (SY-6 01)","OBJECT_ID":"2018-094B","EPOCH":"2026-03-09T23:04:36.967872","MEAN_MOTION":15.28649156,"ECCENTRICITY":0.00144834,"INCLINATION":97.3669,"RA_OF_ASC_NODE":84.0964,"ARG_OF_PERICENTER":135.6758,"MEAN_ANOMALY":224.5644,"EPHEMERIS_TYPE":0,"CLASSIFICATION_TYPE":"U","NORAD_CAT_ID":43711,"ELEMENT_SET_NO":999,"REV_AT_EPOCH":40632,"BSTAR":0.00024768444,"MEAN_MOTION_DOT":6.847e-5,"MEAN_MOTION_DDOT":0},{"OBJECT_NAME":"STARLINK-32222","OBJECT_ID":"2024-144L","EPOCH":"2026-03-09T17:12:25.454592","MEAN_MOTION":15.30184598,"ECCENTRICITY":0.00018483,"INCLINATION":53.1603,"RA_OF_ASC_NODE":216.9816,"ARG_OF_PERICENTER":47.2647,"MEAN_ANOMALY":312.8509,"EPHEMERIS_TYPE":0,"CLASSIFICATION_TYPE":"U","NORAD_CAT_ID":60435,"ELEMENT_SET_NO":999,"REV_AT_EPOCH":8931,"BSTAR":9.756489e-6,"MEAN_MOTION_DOT":-7.1e-7,"MEAN_MOTION_DDOT":0}]
